ORBCOMM FM115           
1 41186U 15081H   25355.69049830  .00000455  00000+0  12217-3 0  9993
2 41186  46.9972 227.5236 0001090 227.4007 132.6788 14.62936149535225
ORBCOMM FM108           
1 41187U 15081J   25355.27533471  .00000728  00000+0  19135-3 0  9996
2 41187  47.0059 303.1838 0001776  84.4634 275.6455 14.58572711534102
ORBCOMM FM117           
1 41188U 15081K   25355.85751720  .00000718  00000+0  18918-3 0  9997
2 41188  47.0021 299.1267 0002083  99.9301 260.1820 14.58599356534239
ORBCOMM FM116           
1 41189U 15081L   25355.83787095  .00000738  00000+0  19350-3 0  9993
2 41189  47.0033  28.9910 0002552 296.3392  63.7232 14.58592987533045
